[{"OBJECT_NAME":"APRIZESAT 1","OBJECT_ID":"2004-025G","EPOCH":"2026-03-09T23:27:31.277376","MEAN_MOTION":14.51715108,"ECCENTRICITY":0.00458388,"INCLINATION":98.6346,"RA_OF_ASC_NODE":76.9867,"ARG_OF_PERICENTER":96.737,"MEAN_ANOMALY":263.9043,"EPHEMERIS_TYPE":0,"CLASSIFICATION_TYPE":"U","NORAD_CAT_ID":28372,"ELEMENT_SET_NO":999,"REV_AT_EPOCH":14751,"BSTAR":0.00011028964,"MEAN_MOTION_DOT":4.0e-6,"MEAN_MOTION_DDOT":0},{"OBJECT_NAME":"COSMOS 2251 DEB","OBJECT_ID":"1993-036ZU","EPOCH":"2026-03-09T22:23:00.704256","MEAN_MOTION":14.62530433,"ECCENTRICITY":0.0038744,"INCLINATION":74.1085,"RA_OF_ASC_NODE":35.5869,"ARG_OF_PERICENTER":318.5055,"MEAN_ANOMALY":105.195,"EPHEMERIS_TYPE":0,"CLASSIFICATION_TYPE":"U","NORAD_CAT_ID":34750,"ELEMENT_SET_NO":999,"REV_AT_EPOCH":89505,"BSTAR":0.0016057509,"MEAN_MOTION_DOT":8.214e-5,"MEAN_MOTION_DDOT":0}]
